NORAD_CAT_ID,OBJECT_NAME,OBJECT_TYPE,EPOCH,MEAN_MOTION,ECCENTRICITY,INCLINATION,RA_OF_ASC_NODE,ARG_OF_PERICENTER,MEAN_ANOMALY,BSTAR,MEAN_MOTION_DOT,MEAN_MOTION_DDOT,TLE_LINE0,TLE_LINE1,TLE_LINE2,SEMIMAJOR_AXIS,PERIOD,APOGEE,PERIGEE,DECAYED
55397.0,STARLINK-5224,PAYLOAD,2023-02-27 04:28:46,15.69952416,0.0002964,70.0009,15.186,237.7328,122.358,0.00017362,0.00020738,0.0,0 STARLINK-5224,1 55397U 23014G   23058.18665414  .00020738  00000-0  17362-3 0  9994,2 55397  70.0009  15.1860 0002964 237.7328 122.3580 15.69952416  4363,6737.17,91.723,361.032,357.038,0.0
55397.0,STARLINK-5224,PAYLOAD,2023-02-27 06:00:32,15.69952063,0.0002831,70.0013,15.0072,241.3447,118.7464,0.00019269,0.00023045,0.0,0 STARLINK-5224,1 55397U 23014G   23058.25037222  .00023045  00000-0  19269-3 0  9994,2 55397  70.0013  15.0072 0002831 241.3447 118.7464 15.69952063  5312,6737.171,91.723,360.943,357.129,0.0
55397.0,STARLINK-5224,PAYLOAD,2023-02-28 03:25:03,15.69904344,0.0003538,69.9996,12.4984,258.5421,101.5378,-0.0001561,-0.00018926,0.0,0 STARLINK-5224,1 55397U 23014G   23059.14239675 -.00018926  00000-0 -15610-3 0  9999,2 55397  69.9996  12.4984 0003538 258.5421 101.5378 15.69904344  4513,6737.308,91.725,361.556,356.789,0.0
55397.0,STARLINK-5224,PAYLOAD,2023-02-28 06:28:34,15.69909436,0.0003447,69.9996,12.1402,261.0759,99.0047,-9.3141e-05,-0.0001139,0.0,0 STARLINK-5224,1 55397U 23014G   23059.26984009 -.00011390  00000-0 -93141-4 0  9994,2 55397  69.9996  12.1402 0003447 261.0759  99.0047 15.69909436  5474,6737.293,91.725,361.48,356.836,0.0
55397.0,STARLINK-5224,PAYLOAD,2023-02-28 21:46:06,15.69892429,0.000344,70.0014,10.3496,259.4425,100.6383,5.5248e-07,-1.46e-06,0.0,0 STARLINK-5224,1 55397U 23014G   23059.90701954 -.00000146  00000-0  55248-6 0  9995,2 55397  70.0014  10.3496 0003440 259.4425 100.6383 15.69892429  5571,6737.342,91.726,361.524,356.889,0.0
55397.0,STARLINK-5224,PAYLOAD,2023-02-28 23:17:51,15.69894175,0.0003363,70.0021,10.1704,258.3472,101.7347,2.6285e-05,2.945e-05,0.0,0 STARLINK-5224,1 55397U 23014G   23059.97073766  .00002945  00000-0  26285-4 0  9990,2 55397  70.0021  10.1704 0003363 258.3472 101.7347 15.69894175  4642,6737.337,91.726,361.468,356.936,0.0
55397.0,STARLINK-5224,PAYLOAD,2023-03-01 05:24:52,15.69923961,0.0002531,70.0013,9.4541,232.8217,127.2748,0.0001694,0.00020203,0.0,0 STARLINK-5224,1 55397U 23014G   23060.22560340  .00020203  00000-0  16940-3 0  9992,2 55397  70.0013   9.4541 0002531 232.8217 127.2748 15.69923961  4681,6737.252,91.724,360.822,357.411,0.0
55397.0,STARLINK-5224,PAYLOAD,2023-03-01 22:14:08,15.6993377,0.0003148,70.0006,7.482,242.5077,117.5799,4.6539e-05,5.389e-05,0.0,0 STARLINK-5224,1 55397U 23014G   23060.92648267  .00005389  00000-0  46539-4 0  9990,2 55397  70.0006   7.4820 0003148 242.5077 117.5799 15.69933770  5732,6737.223,91.724,361.209,356.968,0.0
55397.0,STARLINK-5224,PAYLOAD,2023-03-02 02:49:23,15.69926879,0.0003242,70.0001,6.9433,263.7103,96.3723,5.0699e-05,5.888e-05,0.0,0 STARLINK-5224,1 55397U 23014G   23061.11763640  .00005888  00000-0  50699-4 0  9991,2 55397  70.0001   6.9433 0003242 263.7103  96.3723 15.69926879  4823,6737.243,91.724,361.292,356.924,0.0
55397.0,STARLINK-5224,PAYLOAD,2023-03-02 19:38:38,15.69967049,0.0003876,69.9987,4.9713,265.7336,94.3417,0.00011805,0.00014032,0.0,0 STARLINK-5224,1 55397U 23014G   23061.81849687  .00014032  00000-0  11805-3 0  9990,2 55397  69.9987   4.9713 0003876 265.7336  94.3417 15.69967049  4939,6737.128,91.722,361.605,356.382,0.0
55397.0,STARLINK-5224,PAYLOAD,2023-03-03 07:52:39,15.69923398,0.0003291,69.9992,3.5391,266.3159,93.766,-2.6683e-05,-3.42e-05,0.0,0 STARLINK-5224,1 55397U 23014G   23062.32823868 -.00003420  00000-0 -26683-4 0  9992,2 55397  69.9992   3.5391 0003291 266.3159  93.7660 15.69923398  5015,6737.253,91.724,361.335,356.901,0.0
55397.0,STARLINK-5224,PAYLOAD,2023-03-03 21:38:26,15.69913028,0.0003487,70.0003,1.926,262.3563,97.7237,-3.4105e-05,-4.31e-05,0.0,0 STARLINK-5224,1 55397U 23014G   23062.90169993 -.00004310  00000-0 -34105-4 0  9995,2 55397  70.0003   1.9260 0003487 262.3563  97.7237 15.69913028  6047,6737.283,91.725,361.497,356.799,0.0
55397.0,STARLINK-5224,PAYLOAD,2023-03-04 02:13:42,15.69916139,0.0003751,69.9988,1.3879,262.7139,97.363,1.7444e-05,1.884e-05,0.0,0 STARLINK-5224,1 55397U 23014G   23063.09285063  .00001884  00000-0  17444-4 0  9991,2 55397  69.9988   1.3879 0003751 262.7139  97.3630 15.69916139  5131,6737.274,91.725,361.666,356.612,0.0
55397.0,STARLINK-5224,PAYLOAD,2023-03-04 05:17:12,15.69919015,0.0003074,69.9994,1.03,257.9054,102.1798,0.00011679,0.0001385,0.0,0 STARLINK-5224,1 55397U 23014G   23063.22028719  .00013850  00000-0  11679-3 0  9998,2 55397  69.9994   1.0300 0003074 257.9054 102.1798 15.69919015  6096,6737.266,91.724,361.202,357.06,0.0
55397.0,STARLINK-5224,PAYLOAD,2023-03-04 19:02:59,15.69924446,0.0002934,69.999,359.4189,257.4249,102.6619,0.00010188,0.00012054,0.0,0 STARLINK-5224,1 55397U 23014G   23063.79373886  .00012054  00000-0  10188-3 0  9997,2 55397  69.9990 359.4189 0002934 257.4249 102.6619 15.69924446  6183,6737.25,91.724,361.092,357.138,0.0
55397.0,STARLINK-5224,PAYLOAD,2023-03-05 05:45:14,15.69926828,0.0002813,69.9996,358.163,234.2572,125.8363,6.8583e-05,8.042e-05,0.0,0 STARLINK-5224,1 55397U 23014G   23064.23975587  .00008042  00000-0  68583-4 0  9998,2 55397  69.9996 358.1630 0002813 234.2572 125.8363 15.69926828  5317,6737.243,91.724,361.004,357.213,0.0
55397.0,STARLINK-5224,PAYLOAD,2023-03-05 22:34:30,15.69939494,0.0003014,69.999,356.1916,241.9372,118.1519,4.8492e-05,5.625e-05,0.0,0 STARLINK-5224,1 55397U 23014G   23064.94063197  .00005625  00000-0  48492-4 0  9992,2 55397  69.9990 356.1916 0003014 241.9372 118.1519 15.69939494  6360,6737.207,91.723,361.103,357.042,0.0
55397.0,STARLINK-5224,PAYLOAD,2023-03-06 10:48:32,15.69918586,0.0003149,69.9995,354.7595,273.9532,86.1304,-1.6205e-05,-2.16e-05,0.0,0 STARLINK-5224,1 55397U 23014G   23065.45037184 -.00002160  00000-0 -16205-4 0  9996,2 55397  69.9995 354.7595 0003149 273.9532  86.1304 15.69918586  5504,6737.267,91.725,361.253,357.01,0.0
55397.0,STARLINK-5224,PAYLOAD,2023-03-06 18:27:18,15.69910876,0.000331,70.0004,353.8648,281.5444,78.538,-3.2995e-05,-4.176e-05,0.0,0 STARLINK-5224,1 55397U 23014G   23065.76895990 -.00004176  00000-0 -32995-4 0  9990,2 55397  70.0004 353.8648 0003310 281.5444  78.5380 15.69910876  6496,6737.289,91.725,361.384,356.924,0.0
55397.0,STARLINK-5224,PAYLOAD,2023-03-07 03:37:47,15.69951965,0.0003452,69.9991,352.7873,266.8232,93.2569,8.2607e-05,9.743e-05,0.0,0 STARLINK-5224,1 55397U 23014G   23066.15124618  .00009743  00000-0  82607-4 0  9994,2 55397  69.9991 352.7873 0003452 266.8232  93.2569 15.69951965  5614,6737.171,91.723,361.362,356.711,0.0
55397.0,STARLINK-5224,PAYLOAD,2023-03-07 18:55:19,15.69913538,0.0003837,69.9974,350.9965,260.707,99.3692,-1.0422e-05,-1.466e-05,0.0,0 STARLINK-5224,1 55397U 23014G   23066.78842567 -.00001466  00000-0 -10422-4 0  9995,2 55397  69.9974 350.9965 0003837 260.7070  99.3692 15.69913538  5716,6737.281,91.725,361.731,356.561,0.0
55397.0,STARLINK-5224,PAYLOAD,2023-03-08 02:34:05,15.69930896,0.0003264,69.9993,350.1015,253.85,106.2337,3.624e-05,4.148e-05,0.0,0 STARLINK-5224,1 55397U 23014G   23067.10700439  .00004148  00000-0  36240-4 0  9997,2 55397  69.9993 350.1015 0003264 253.8500 106.2337 15.69930896  5765,6737.232,91.724,361.296,356.898,0.0
55397.0,STARLINK-5224,PAYLOAD,2023-03-08 17:51:36,15.69923787,0.0003289,70.0005,348.3097,254.2927,105.7906,2.7827e-05,3.134e-05,0.0,0 STARLINK-5224,1 55397U 23014G   23067.74417498  .00003134  00000-0  27827-4 0  9992,2 55397  70.0005 348.3097 0003289 254.2927 105.7906 15.69923787  5864,6737.252,91.724,361.333,356.901,0.0
55397.0,STARLINK-5224,PAYLOAD,2023-03-09 19:51:23,15.69931552,0.0003222,69.9991,345.2652,260.1261,99.9571,3.7417e-05,4.29e-05,0.0,0 STARLINK-5224,1 55397U 23014G   23068.82735585  .00004290  00000-0  37417-4 0  9992,2 55397  69.9991 345.2652 0003222 260.1261  99.9571 15.69931552  6033,6737.23,91.724,361.266,356.924,0.0
55397.0,STARLINK-5224,PAYLOAD,2023-03-09 21:23:08,15.6993119,0.0003267,69.9991,345.0859,261.3122,98.7704,3.3929e-05,3.87e-05,0.0,0 STARLINK-5224,1 55397U 23014G   23068.89107248  .00003870  00000-0  33929-4 0  9995,2 55397  69.9991 345.0859 0003267 261.3122  98.7704 15.69931190  6985,6737.231,91.724,361.297,356.895,0.0
55397.0,STARLINK-5224,PAYLOAD,2023-03-10 21:51:10,15.69929101,0.0002935,70.0001,342.2211,254.7215,105.3656,1.0631e-05,1.066e-05,0.0,0 STARLINK-5224,1 55397U 23014G   23069.91053811  .00001066  00000-0  10631-4 0  9995,2 55397  70.0001 342.2211 0002935 254.7215 105.3656 15.69929101  7140,6737.237,91.724,361.079,357.124,0.0
55397.0,STARLINK-5224,PAYLOAD,2023-03-11 00:54:40,15.69928765,0.0003535,69.9982,341.8608,271.7309,88.3482,1.272e-05,1.317e-05,0.0,0 STARLINK-5224,1 55397U 23014G   23070.03797244  .00001317  00000-0  12720-4 0  9995,2 55397  69.9982 341.8608 0003535 271.7309  88.3482 15.69928765  6220,6737.238,91.724,361.484,356.721,0.0
55397.0,STARLINK-5224,PAYLOAD,2023-03-11 05:29:56,15.69912587,0.000341,69.9992,341.3234,267.2586,92.8219,-3.4744e-05,-4.386e-05,0.0,0 STARLINK-5224,1 55397U 23014G   23070.22912656 -.00004386  00000-0 -34744-4 0  9993,2 55397  69.9992 341.3234 0003410 267.2586  92.8219 15.69912587  6256,6737.284,91.725,361.447,356.852,0.0
55397.0,STARLINK-5224,PAYLOAD,2023-03-11 16:12:12,15.69914013,0.0003676,69.9984,340.0685,267.8594,92.2181,-1.6175e-05,-2.157e-05,0.0,0 STARLINK-5224,1 55397U 23014G   23070.67514480 -.00002157  00000-0 -16175-4 0  9997,2 55397  69.9984 340.0685 0003676 267.8594  92.2181 15.69914013  7262,6737.28,91.725,361.622,356.668,0.0
55397.0,STARLINK-5224,PAYLOAD,2023-03-11 20:47:27,15.69923061,0.0003355,69.9986,339.5319,269.5657,90.5154,5.4879e-07,-1.47e-06,0.0,0 STARLINK-5224,1 55397U 23014G   23070.86629250 -.00000147  00000-0  54879-6 0  9991,2 55397  69.9986 339.5319 0003355 269.5657  90.5154 15.69923061  6357,6737.254,91.724,361.379,356.859,0.0
